STARLINK-36165          
1 66937U 25286N   26003.25341341 -.02027765  00000+0 -44262-1 0  9997
2 66937  53.1606 304.8444 0015446 166.5270 193.6154 15.46813593  5366
STARLINK-36155          
1 66938U 25286P   26003.25002315 -.00176765  00000+0 -32329-2 0  9998
2 66938  53.1589 304.8564 0001139 100.1404 243.1213 15.49393109  5442
STARLINK-36154          
1 66939U 25286Q   26003.25002315 -.00559260  00000+0 -14866-1 0  9999
2 66939  53.1604 305.1354 0001343  91.8880 111.3093 15.39940659  5442
STARLINK-36121          
1 66940U 25286R   26003.25002315  .00073944  00000+0  18419-2 0  9998
2 66940  53.1601 305.0839 0001190  76.3731 152.5764 15.39600696  5447
STARLINK-36088          
1 66941U 25286S   26003.18144879  .00102081  00000+0  18179-2 0  9991
2 66941  53.1585 305.1033 0001148  83.3878 276.7262 15.49334965  5355
STARLINK-36100          
1 66942U 25286T   26003.25002315 -.00333133  00000+0 -86352-2 0  9992
2 66942  53.1594 305.0322 0001132  79.1132 175.5697 15.39802234  5373
STARLINK-36109          
1 66943U 25286U   26003.25002315 -.00027847  00000+0 -68892-3 0  9995
2 66943  53.1592 304.9292 0001398  88.2992 217.9332 15.39611210  5374
STARLINK-36112          
1 66944U 25286V   26003.25002315 -.02011582  00000+0 -47401-1 0  9998
2 66944  53.1594 304.8469 0001145  99.2592 247.5757 15.44821609  5449
STARLINK-36110          
1 66945U 25286W   26003.25002315 -.02184989  00000+0 -57393-1 0  9992
2 66945  53.1595 304.8783 0001104 102.6848 228.1968 15.41353175  5442
STARLINK-36115          
1 66946U 25286X   26003.31508783 -.00439530  00000+0 -87730-2 0  9992
2 66946  53.1596 304.5145 0000870  64.1146 295.9952 15.47897142  5375
STARLINK-36089          
1 66947U 25286Y   26003.12059426  .00118889  00000+0  21110-2 0  9996
2 66947  53.1597 305.4330 0001233  88.5736 271.5415 15.49339495  5347
STARLINK-36116          
1 66948U 25286Z   26003.24962202  .01433536  00000+0  21707-1 0  9996
2 66948  53.1595 304.8165 0009810 344.7695  15.3018 15.51445713  5364
STARLINK-36096          
1 66949U 25286AA  26003.25002315  .00059438  00000+0  14854-2 0  9998
2 66949  53.1590 304.9788 0000998  84.5295 195.9435 15.39598777  5447
STARLINK-36111          
1 66950U 25286AB  26003.25002315 -.00081667  00000+0 -14741-2 0  9996
2 66950  53.1587 304.8036 0001267  83.3819 284.8087 15.49338194  5446
STARLINK-35999          
1 66951U 25286AC  26003.05471001  .00068030  00000+0  12193-2 0  9993
2 66951  53.1594 305.7328 0001161 110.9652 249.1481 15.49340524  5334
STARLINK-36122          
1 66952U 25286AD  26003.11955728 -.00128088  00000+0 -23255-2 0  9997
2 66952  53.1593 305.4266 0002024  33.9302 326.1836 15.49394930  5348
HULIANWANG DIGUI-114    
1 66953U 25287A   25362.37786440  .00000040  00000+0  30534-4 0  9992
2 66953  86.4952 340.4811 0001731  85.2347 274.9006 13.62060403  2664
HULIANWANG DIGUI-115    
1 66954U 25287B   25362.30127108  .00000040  00000+0  30553-4 0  9997
2 66954  86.4760 340.5489 0003893  64.9296 295.2263 13.61926978  2659
HULIANWANG DIGUI-116    
1 66955U 25287C   25362.29720234  .00000185  00000+0  21733-3 0  9994
2 66955  86.4968 340.4874 0002763  86.1288 274.0183 13.62405302  2659
HULIANWANG DIGUI-117    
1 66956U 25287D   25358.91908891  .00000024  00000+0  90260-5 0  9991
2 66956  86.4976 341.7257 0001044 103.5815 256.5458 13.64670553  2192
HULIANWANG DIGUI-118    
1 66957U 25287E   25362.51058519  .00000182  00000+0  21280-3 0  9995
2 66957  86.4946 340.4177 0001409  89.7446 270.3872 13.62673219  2685
CZ-6A R/B               
1 66958U 25287F   26003.29431065  .00000176  00000+0  11236-3 0  9998
2 66958  86.5073 337.9070 0106517  37.2594 323.5908 13.94923962  3544
STARLINK-35887          
1 66959U 25288A   26003.25002315 -.00123313  00000+0 -29874-2 0  9995
2 66959  43.0009  38.3743 0001477 273.9438 226.8248 15.40751752  5280
STARLINK-35879          
1 66960U 25288B   26003.13495537  .00136236  00000+0  22923-2 0  9990
2 66960  43.0005  38.6998 0002311 253.5497 106.5109 15.50524003  5200
STARLINK-35761          
1 66961U 25288C   26003.25002315 -.00337152  00000+0 -83769-2 0  9999
2 66961  43.0004  38.1643 0000834 265.6647 322.1785 15.40875412  5287
STARLINK-35874          
1 66962U 25288D   26003.13425440  .00140168  00000+0  23491-2 0  9998
2 66962  43.0006  38.6934 0001500 265.5838  94.4851 15.50620028  5207
STARLINK-36133          
1 66963U 25288E   26003.13391118  .00140378  00000+0  23527-2 0  9996
2 66963  43.0006  38.6907 0001572 259.0249 101.0435 15.50617985  5202
STARLINK-36104          
1 66964U 25288F   26003.19832557  .00150519  00000+0  25284-2 0  9990
2 66964  43.0012  38.3121 0001251 267.8248  92.2469 15.50513139  5210
STARLINK-36067          
1 66965U 25288G   26003.25002315 -.00166662  00000+0 -40577-2 0  9999
2 66965  43.0009  38.2530 0001205 270.8835 279.6192 15.40791986  5283
STARLINK-36139          
1 66966U 25288H   26002.55314769  .00016683  00000+0  28959-3 0  9997
2 66966  43.0010  42.0733 0001227 276.9960  83.0761 15.50578294  5111
STARLINK-36136          
1 66967U 25288J   26003.26136803  .00208377  00000+0  34541-2 0  9994
2 66967  43.0004  37.9261 0001921 251.1234 108.9418 15.50659297  5225
STARLINK-36152          
1 66968U 25288K   26003.13219643  .00136858  00000+0  22947-2 0  9996
2 66968  43.0008  38.6763 0001290 258.3959 101.6757 15.50619856  5208
STARLINK-36149          
1 66969U 25288L   26003.25002315 -.00126164  00000+0 -30582-2 0  9991
2 66969  43.0011  38.3111 0001434 278.2197 247.4339 15.40748158  5282
STARLINK-35703          
1 66970U 25288M   26003.25793991  .00178384  00000+0  29728-2 0  9999
2 66970  43.0007  37.8974 0002509 296.0228  64.0374 15.50624563  5227
STARLINK-35678          
1 66971U 25288N   26003.13185293  .00123932  00000+0  20822-2 0  9992
2 66971  43.0013  38.6740 0001309 257.5971 102.4743 15.50616942  5206
STARLINK-34846          
1 66972U 25288P   26003.26034005  .00118693  00000+0  19952-2 0  9991
2 66972  43.0005  37.9180 0002051 293.1943  66.8701 15.50624599  5224
STARLINK-35778          
1 66973U 25288Q   26003.25002315  .00041002  00000+0  98477-3 0  9999
2 66973  43.0007  38.1921 0001173 257.4800 317.9231 15.40662162  5283
STARLINK-35780          
1 66974U 25288R   26003.25002315 -.00078814  00000+0 -18980-2 0  9993
2 66974  43.0005  38.1321 0000650 293.1130 307.1954 15.40717722  5284
STARLINK-35777          
1 66975U 25288S   26003.25002315 -.00136524  00000+0 -33144-2 0  9996
2 66975  43.0002  38.0998 0001076 280.8937 331.8617 15.40748740  5286
STARLINK-35772          
1 66976U 25288T   26003.15601109  .00121137  00000+0  28584-2 0  9996
2 66976  43.0013  40.6328 0001667 269.7518  90.3148 15.40730893  5187
STARLINK-35770          
1 66977U 25288U   26001.58383638  .00106642  00000+0  17973-2 0  9990
2 66977  43.0009  47.6983 0001130 275.3451  84.7280 15.50604727  4967
STARLINK-35787          
1 66978U 25288V   26003.25002315 -.00086919  00000+0 -20954-2 0  9996
2 66978  43.0010  38.2205 0001489 264.8108 298.1713 15.40726168  5283
STARLINK-36107          
1 66979U 25288W   26003.12842378  .00169263  00000+0  28244-2 0  9996
2 66979  43.0006  38.6462 0001283 256.5132 103.5585 15.50625333  5206
STARLINK-36086          
1 66980U 25288X   26003.25002315  .00045444  00000+0  10907-2 0  9992
2 66980  43.0000  38.0378 0000822 287.1193 350.5321 15.40643594  5285
STARLINK-36142          
1 66981U 25288Y   26003.25002315 -.02365253  00000+0 -58491-1 0  9999
2 66981  43.0003  37.9842 0001444 268.4565  31.9167 15.43187715  5288
STARLINK-36113          
1 66982U 25288Z   26003.25622308  .00103161  00000+0  17386-2 0  9993
2 66982  43.0006  37.8837 0002567 288.0761  71.9820 15.50619178  5223
STARLINK-36145          
1 66983U 25288AA  26003.25553881  .00096048  00000+0  16217-2 0  9990
2 66983  43.0009  37.8780 0001381 288.0432  72.0277 15.50601413  5223
STARLINK-35591          
1 66984U 25288AB  26003.12705204  .00163548  00000+0  27309-2 0  9999
2 66984  43.0005  38.6345 0001029 257.7498 102.3247 15.50629007  5201
STARLINK-36103          
1 66985U 25288AC  26003.25519512  .00119073  00000+0  20021-2 0  9997
2 66985  43.0010  37.8746 0000904 299.1497  60.9273 15.50616478  5222
STARLINK-36135          
1 66986U 25288AD  26003.25485033  .00208076  00000+0  34487-2 0  9991
2 66986  43.0005  37.8719 0001919 249.2782 110.7873 15.50663643  5223
STARLINK-36147          
1 66987U 25288AE  26003.25451080  .00167003  00000+0  27885-2 0  9995
2 66987  43.0006  37.8695 0001067 285.0779  74.9963 15.50615677  5221
YAOGAN-47               
1 66988U 25289A   25362.17815560  .00004855  00000+0  20730-3 0  9990
2 66988  97.5253  67.3364 0000855 117.9958 242.1365 15.23366104  2890
CZ-4B R/B               
1 66989U 25289B   26003.19066853  .00183419  12381-4  77629-3 0  9992
2 66989  97.5217  75.1570 0132144 281.4904  77.1545 15.73137321  3936
TJS-22                  
1 66990U 25290A   26002.32612006  .00000003  00000+0  00000+0 0  9999
2 66990   1.9370 285.0597 0003314 344.4790  16.3021  1.00272811   364
CZ-3B R/B               
1 66991U 25290B   25349.72468800  .00057911 -20514-6  75879-3 0  9998
2 66991  28.4636 300.4666 7240884 182.7002 168.6250  2.38388611   165
2025-292A               
1 66993U 25292A   26003.28811063  .00009535  00000+0  67914-3 0  9994
2 66993  97.6504  80.6278 0015180 196.1148 163.9597 15.04725781  3634
2025-292B               
1 66994U 25292B   26003.28732420  .00010857  00000+0  77123-3 0  9996
2 66994  97.6515  80.6316 0014978 196.3978 163.6766 15.04792227  3631
2025-292C               
1 66995U 25292C   26003.28771869  .00012060  00000+0  85797-3 0  9991
2 66995  97.6506  80.6283 0015164 194.5839 165.4952 15.04705184  3632
2025-292D               
1 66996U 25292D   26003.28681357  .00008443  00000+0  60146-3 0  9995
2 66996  97.6502  80.6281 0014351 198.3919 161.6790 15.04767629  3635
